{"type": "FeatureCollection", "features": [ {"type": "Feature", "properties": {"norad_id": 41556, "name": "ZIYUAN 3-02 (ZY 3-02)", "group": "resource", "lat": 13.453701965648083, "lon": 64.28290537993615, "alt_km": 509.85746207876036, "timestamp": "2025-12-17T23:38:06.520428+00:00", "meta": {"OBJECT_NAME": "ZIYUAN 3-02 (ZY 3-02)", "OBJECT_ID": "2016-033A", "EPOCH": "2025-12-17T15:40:53.849856", "MEAN_MOTION": 15.21125564, "ECCENTRICITY": 0.00108515, "INCLINATION": 97.4045, "RA_OF_ASC_NODE": 65.7399, "ARG_OF_PERICENTER": 228.0528, "MEAN_ANOMALY": 131.9784, "EPHEMERIS_TYPE": 0, "CLASSIFICATION_TYPE": "U", "NORAD_CAT_ID": 41556, "ELEMENT_SET_NO": 999, "REV_AT_EPOCH": 53038, "BSTAR": 0.00024847044, "MEAN_MOTION_DOT": 5.469e-05, "MEAN_MOTION_DDOT": 0}, "tle": {"line1": "1 41556U 16033A   25351.65340104  .00005469  00000+0  24847-3 0  9994", "line2": "2 41556  97.4045  65.7399 0010851 228.0528 131.9784 15.21125564530387"}}, "geometry": {"type": "Point", "coordinates": [64.28290537993615, 13.453701965648083]}}, {"type": "Feature", "properties": {"norad_id": 41599, "name": "CARTOSAT-2C", "group": "resource", "lat": -79.86538774580026, "lon": 96.46116032937259, "alt_km": 520.6854987440638, "timestamp": "2025-12-17T23:38:06.520438+00:00", "meta": {"OBJECT_NAME": "CARTOSAT-2C", "OBJECT_ID": "2016-040A", "EPOCH": "2025-12-17T16:05:47.594400", "MEAN_MOTION": 15.19158635, "ECCENTRICITY": 0.00113114, "INCLINATION": 97.4763, "RA_OF_ASC_NODE": 48.8707, "ARG_OF_PERICENTER": 47.451, "MEAN_ANOMALY": 312.7678, "EPHEMERIS_TYPE": 0, "CLASSIFICATION_TYPE": "U", "NORAD_CAT_ID": 41599, "ELEMENT_SET_NO": 999, "REV_AT_EPOCH": 52615, "BSTAR": 0.00017422247, "MEAN_MOTION_DOT": 3.599e-05, "MEAN_MOTION_DDOT": 0}, "tle": {"line1": "1 41599U 16040A   25351.67068975  .00003599  00000+0  17422-3 0  9997", "line2": "2 41599  97.4763  48.8707 0011311  47.4510 312.7678 15.19158635526155"}}, "geometry": {"type": "Point", "coordinates": [96.46116032937259, -79.86538774580026]}}, {"type": "Feature", "properties": {"norad_id": 41601, "name": "SKYSAT-C1", "group": "resource", "lat": -44.369502023502854, "lon": -158.18236867542703, "alt_km": 475.4416649882187, "timestamp": "2025-12-17T23:38:06.520448+00:00", "meta": {"OBJECT_NAME": "SKYSAT-C1", "OBJECT_ID": "2016-040C", "EPOCH": "2025-12-17T14:49:23.156832", "MEAN_MOTION": 15.32678311, "ECCENTRICITY": 0.00018094, "INCLINATION": 96.9823, "RA_OF_ASC_NODE": 28.3568, "ARG_OF_PERICENTER": 359.3867, "MEAN_ANOMALY": 0.7374, "EPHEMERIS_TYPE": 0, "CLASSIFICATION_TYPE": "U", "NORAD_CAT_ID": 41601, "ELEMENT_SET_NO": 999, "REV_AT_EPOCH": 53002, "BSTAR": 0.00024013946, "MEAN_MOTION_DOT": 7.507e-05, "MEAN_MOTION_DDOT": 0}, "tle": {"line1": "1 41601U 16040C   25351.61762913  .00007507  00000+0  24014-3 0  9996", "line2": "2 41601  96.9823  28.3568 0001809 359.3867   0.7374 15.32678311530020"}}, "geometry": {"type": "Point", "coordinates": [-158.18236867542703, -44.369502023502854]}}, {"type": "Feature", "properties": {"norad_id": 41603, "name": "LAPAN-A3", "group": "resource", "lat": -11.552528052633251, "lon": -9.180795659834526, "alt_km": 470.4179307278655, "timestamp": "2025-12-17T23:38:06.520459+00:00", "meta": {"OBJECT_NAME": "LAPAN-A3", "OBJECT_ID": "2016-040E", "EPOCH": "2025-12-17T14:16:39.767808", "MEAN_MOTION": 15.31591586, "ECCENTRICITY": 0.00091672, "INCLINATION": 97.1423, "RA_OF_ASC_NODE": 348.9747, "ARG_OF_PERICENTER": 314.4675, "MEAN_ANOMALY": 45.5816, "EPHEMERIS_TYPE": 0, "CLASSIFICATION_TYPE": "U", "NORAD_CAT_ID": 41603, "ELEMENT_SET_NO": 999, "REV_AT_EPOCH": 52700, "BSTAR": 0.00011314493, "MEAN_MOTION_DOT": 3.381e-05, "MEAN_MOTION_DDOT": 0}, "tle": {"line1": "1 41603U 16040E   25351.59490472  .00003381  00000+0  11314-3 0  9998", "line2": "2 41603  97.1423 348.9747 0009167 314.4675  45.5816 15.31591586527004"}}, "geometry": {"type": "Point", "coordinates": [-9.180795659834526, -11.552528052633251]}}, {"type": "Feature", "properties": {"norad_id": 41604, "name": "BIROS", "group": "resource", "lat": -27.145045896857518, "lon": -160.0120420113893, "alt_km": 302.6804689211722, "timestamp": "2025-12-17T23:38:06.520469+00:00", "meta": {"OBJECT_NAME": "BIROS", "OBJECT_ID": "2016-040F", "EPOCH": "2025-12-17T15:13:21.855072", "MEAN_MOTION": 15.91577007, "ECCENTRICITY": 0.0003703, "INCLINATION": 97.0677, "RA_OF_ASC_NODE": 23.2697, "ARG_OF_PERICENTER": 135.7681, "MEAN_ANOMALY": 224.389, "EPHEMERIS_TYPE": 0, "CLASSIFICATION_TYPE": "U", "NORAD_CAT_ID": 41604, "ELEMENT_SET_NO": 999, "REV_AT_EPOCH": 52950, "BSTAR": 0.00056136978, "MEAN_MOTION_DOT": 0.00180274, "MEAN_MOTION_DDOT": 1.3913944e-05}, "tle": {"line1": "1 41604U 16040F   25351.63428073  .00180274  13914-4  56137-3 0  9994", "line2": "2 41604  97.0677  23.2697 0003703 135.7681 224.3890 15.91577007529507"}}, "geometry": {"type": "Point", "coordinates": [-160.0120420113893, -27.145045896857518]}}, {"type": "Feature", "properties": {"norad_id": 41727, "name": "GAOFEN-3", "group": "resource", "lat": -60.29727250430517, "lon": 162.4723107190856, "alt_km": 759.2417084243534, "timestamp": "2025-12-17T23:38:06.520480+00:00", "meta": {"OBJECT_NAME": "GAOFEN-3", "OBJECT_ID": "2016-049A", "EPOCH": "2025-12-17T14:11:38.796864", "MEAN_MOTION": 14.42215027, "ECCENTRICITY": 0.00012995, "INCLINATION": 98.4037, "RA_OF_ASC_NODE": 357.1042, "ARG_OF_PERICENTER": 58.3455, "MEAN_ANOMALY": 301.7862, "EPHEMERIS_TYPE": 0, "CLASSIFICATION_TYPE": "U", "NORAD_CAT_ID": 41727, "ELEMENT_SET_NO": 999, "REV_AT_EPOCH": 49247, "BSTAR": 5.0177076e-05, "MEAN_MOTION_DOT": 1.22e-06, "MEAN_MOTION_DDOT": 0}, "tle": {"line1": "1 41727U 16049A   25351.59142126  .00000122  00000+0  50177-4 0  9995", "line2": "2 41727  98.4037 357.1042 0001299  58.3455 301.7862 14.42215027492478"}}, "geometry": {"type": "Point", "coordinates": [162.4723107190856, -60.29727250430517]}}, {"type": "Feature", "properties": {"norad_id": 41771, "name": "SKYSAT-C4", "group": "resource", "lat": -17.446982225500843, "lon": 19.11096904999025, "alt_km": 445.2443693106252, "timestamp": "2025-12-17T23:38:06.520490+00:00", "meta": {"OBJECT_NAME": "SKYSAT-C4", "OBJECT_ID": "2016-058B", "EPOCH": "2025-12-17T14:22:08.091264", "MEAN_MOTION": 15.42388294, "ECCENTRICITY": 0.00019426, "INCLINATION": 96.9369, "RA_OF_ASC_NODE": 16.5506, "ARG_OF_PERICENTER": 131.7444, "MEAN_ANOMALY": 228.3971, "EPHEMERIS_TYPE": 0, "CLASSIFICATION_TYPE": "U", "NORAD_CAT_ID": 41771, "ELEMENT_SET_NO": 999, "REV_AT_EPOCH": 51742, "BSTAR": 0.00028161381, "MEAN_MOTION_DOT": 0.00012085, "MEAN_MOTION_DDOT": 0}, "tle": {"line1": "1 41771U 16058B   25351.59870476  .00012085  00000+0  28161-3 0  9998", "line2": "2 41771  96.9369  16.5506 0001942 131.7444 228.3971 15.42388294517424"}}, "geometry": {"type": "Point", "coordinates": [19.11096904999025, -17.446982225500843]}}, {"type": "Feature", "properties": {"norad_id": 41772, "name": "SKYSAT-C5", "group": "resource", "lat": 75.05085700572313, "lon": -116.75710637237168, "alt_km": 459.37665715746425, "timestamp": "2025-12-17T23:38:06.520500+00:00", "meta": {"OBJECT_NAME": "SKYSAT-C5", "OBJECT_ID": "2016-058C", "EPOCH": "2025-12-17T15:21:31.669632", "MEAN_MOTION": 15.339631, "ECCENTRICITY": 0.0003766, "INCLINATION": 97.0757, "RA_OF_ASC_NODE": 35.1878, "ARG_OF_PERICENTER": 270.2229, "MEAN_ANOMALY": 89.8583, "EPHEMERIS_TYPE": 0, "CLASSIFICATION_TYPE": "U", "NORAD_CAT_ID": 41772, "ELEMENT_SET_NO": 999, "REV_AT_EPOCH": 51591, "BSTAR": 0.00022831886, "MEAN_MOTION_DOT": 7.429e-05, "MEAN_MOTION_DDOT": 0}, "tle": {"line1": "1 41772U 16058C   25351.63994988  .00007429  00000+0  22832-3 0  9994", "line2": "2 41772  97.0757  35.1878 0003766 270.2229  89.8583 15.33963100515919"}}, "geometry": {"type": "Point", "coordinates": [-116.75710637237168, 75.05085700572313]}}, {"type": "Feature", "properties": {"norad_id": 41773, "name": "SKYSAT-C2", "group": "resource", "lat": 6.664715335158549, "lon": -162.88335550288582, "alt_km": 458.30168182371744, "timestamp": "2025-12-17T23:38:06.520510+00:00", "meta": {"OBJECT_NAME": "SKYSAT-C2", "OBJECT_ID": "2016-058D", "EPOCH": "2025-12-17T15:04:25.946976", "MEAN_MOTION": 15.37380675, "ECCENTRICITY": 0.00037117, "INCLINATION": 97.0356, "RA_OF_ASC_NODE": 15.9481, "ARG_OF_PERICENTER": 21.9124, "MEAN_ANOMALY": 338.228, "EPHEMERIS_TYPE": 0, "CLASSIFICATION_TYPE": "U", "NORAD_CAT_ID": 41773, "ELEMENT_SET_NO": 999, "REV_AT_EPOCH": 51711, "BSTAR": 0.0002641066, "MEAN_MOTION_DOT": 9.604e-05, "MEAN_MOTION_DDOT": 0}, "tle": {"line1": "1 41773U 16058D   25351.62807809  .00009604  00000+0  26411-3 0  9993", "line2": "2 41773  97.0356  15.9481 0003711  21.9124 338.2280 15.37380675517119"}}, "geometry": {"type": "Point", "coordinates": [-162.88335550288582, 6.664715335158549]}}, {"type": "Feature", "properties": {"norad_id": 41774, "name": "SKYSAT-C3", "group": "resource", "lat": 42.811919042227636, "lon": -148.04362800902996, "alt_km": 428.0888568633227, "timestamp": "2025-12-17T23:38:06.520521+00:00", "meta": {"OBJECT_NAME": "SKYSAT-C3", "OBJECT_ID": "2016-058E", "EPOCH": "2025-12-17T15:16:15.950208", "MEAN_MOTION": 15.44569535, "ECCENTRICITY": 0.00018374, "INCLINATION": 96.9293, "RA_OF_ASC_NODE": 25.1549, "ARG_OF_PERICENTER": 107.9075, "MEAN_ANOMALY": 252.2375, "EPHEMERIS_TYPE": 0, "CLASSIFICATION_TYPE": "U", "NORAD_CAT_ID": 41774, "ELEMENT_SET_NO": 999, "REV_AT_EPOCH": 51801, "BSTAR": 0.00034182362, "MEAN_MOTION_DOT": 0.00015812, "MEAN_MOTION_DDOT": 0}, "tle": {"line1": "1 41774U 16058E   25351.63629572  .00015812  00000+0  34182-3 0  9996", "line2": "2 41774  96.9293  25.1549 0001837 107.9075 252.2375 15.44569535518015"}}, "geometry": {"type": "Point", "coordinates": [-148.04362800902996, 42.811919042227636]}}]}